{
  "generated_at": "2026-05-21T09:40:48+00:00",
  "source": "celestrak.org",
  "satellite_count": 9,
  "satellites": [
    {
      "id": "terra",
      "name": "TERRA",
      "platform": "EOS",
      "sensor": "MODIS",
      "swath_km": 2330,
      "color": "#39d0d8",
      "norad": 25994,
      "tle1": "1 25994U 99068A   26140.91950788  .00000225  00000+0  54789-4 0  9996",
      "tle2": "2 25994  97.9474 191.5444 0001501 354.7300 178.0079 14.61078303405620"
    },
    {
      "id": "aqua",
      "name": "AQUA",
      "platform": "EOS",
      "sensor": "MODIS",
      "swath_km": 2330,
      "color": "#2bb673",
      "norad": 27424,
      "tle1": "1 27424U 02022A   26140.94972507  .00000479  00000+0  10525-3 0  9996",
      "tle2": "2 27424  98.4263 109.6922 0002003  69.5149 326.6512 14.62110086279294"
    },
    {
      "id": "snpp",
      "name": "SUOMI NPP",
      "platform": "JPSS",
      "sensor": "VIIRS",
      "swath_km": 3000,
      "color": "#ff8c42",
      "norad": 37849,
      "tle1": "1 37849U 11061A   26140.92140572  .00000062  00000+0  50605-4 0  9990",
      "tle2": "2 37849  98.7945  81.9856 0002699  60.6647 299.4799 14.19511028754576"
    },
    {
      "id": "noaa20",
      "name": "NOAA 20",
      "platform": "JPSS",
      "sensor": "VIIRS",
      "swath_km": 3000,
      "color": "#ffaa00",
      "norad": 43013,
      "tle1": "1 43013U 17073A   26140.93451431  .00000059  00000+0  49052-4 0  9999",
      "tle2": "2 43013  98.7764  80.6409 0001243  43.0058 317.1215 14.19506091440601"
    },
    {
      "id": "noaa21",
      "name": "NOAA 21",
      "platform": "JPSS",
      "sensor": "VIIRS",
      "swath_km": 3000,
      "color": "#ff5a3a",
      "norad": 54234,
      "tle1": "1 54234U 22150A   26140.89792718  .00000029  00000+0  34511-4 0  9990",
      "tle2": "2 54234  98.7052  80.1468 0000531 293.0914  67.0207 14.19559877182677"
    },
    {
      "id": "sentinel2a",
      "name": "SENTINEL-2A",
      "platform": "Copernicus",
      "sensor": "MSI",
      "swath_km": 290,
      "color": "#b388ff",
      "norad": 40697,
      "tle1": "1 40697U 15028A   26140.94196251  .00000008  00000+0  19599-4 0  9996",
      "tle2": "2 40697  98.5684 216.1787 0001157  84.7439 275.3876 14.30814713569830"
    },
    {
      "id": "sentinel2b",
      "name": "SENTINEL-2B",
      "platform": "Copernicus",
      "sensor": "MSI",
      "swath_km": 290,
      "color": "#9d6dff",
      "norad": 42063,
      "tle1": "1 42063U 17013A   26140.93473769 -.00000069  00000+0 -96664-5 0  9990",
      "tle2": "2 42063  98.5691 216.0922 0001275  91.1511 268.9818 14.30819495480749"
    },
    {
      "id": "sentinel3a",
      "name": "SENTINEL-3A",
      "platform": "Copernicus",
      "sensor": "OLCI",
      "swath_km": 1270,
      "color": "#7a4fff",
      "norad": 41335,
      "tle1": "1 41335U 16011A   26140.93604564  .00000063  00000+0  44159-4 0  9990",
      "tle2": "2 41335  98.6257 208.7091 0001166 107.8988 252.2320 14.26737644534177"
    },
    {
      "id": "sentinel3b",
      "name": "SENTINEL-3B",
      "platform": "Copernicus",
      "sensor": "OLCI",
      "swath_km": 1270,
      "color": "#5e3bff",
      "norad": 43437,
      "tle1": "1 43437U 18039A   26140.90917452  .00000067  00000+0  45848-4 0  9997",
      "tle2": "2 43437  98.6258 208.8311 0001314  76.9084 283.2243 14.26740260420234"
    }
  ]
}